{
    "links": {
        "self": "http://www.neowsapp.com/rest/v1/neo/54097867?api_key=iIulBulltgU6a56xZRHN4H3l9WmuAYTsLGpBGhQ2"
    },
    "id": "54097867",
    "neo_reference_id": "54097867",
    "name": "(2020 VC7)",
    "designation": "2020 VC7",
    "nasa_jpl_url": "http://ssd.jpl.nasa.gov/sbdb.cgi?sstr=54097867",
    "absolute_magnitude_h": 23.943,
    "estimated_diameter": {
        "kilometers": {
            "estimated_diameter_min": 0.0432468995,
            "estimated_diameter_max": 0.096703007
        },
        "meters": {
            "estimated_diameter_min": 43.2468994566,
            "estimated_diameter_max": 96.7030070011
        },
        "miles": {
            "estimated_diameter_min": 0.0268723692,
            "estimated_diameter_max": 0.0600884442
        },
        "feet": {
            "estimated_diameter_min": 141.8861576133,
            "estimated_diameter_max": 317.2670934896
        }
    },
    "is_potentially_hazardous_asteroid": false,
    "close_approach_data": [
        {
            "close_approach_date": "2019-06-04",
            "close_approach_date_full": "2019-Jun-04 00:15",
            "epoch_date_close_approach": 1559607300000,
            "relative_velocity": {
                "kilometers_per_second": "1.7184989834",
                "kilometers_per_hour": "6186.5963401337",
                "miles_per_hour": "3844.1103759014"
            },
            "miss_distance": {
                "astronomical": "1.9636775465",
                "lunar": "763.8705655885",
                "kilometers": "293761978.323225955",
                "miles": "182535229.059009979"
            },
            "orbiting_body": "Juptr"
        },
        {
            "close_approach_date": "2020-12-11",
            "close_approach_date_full": "2020-Dec-11 20:03",
            "epoch_date_close_approach": 1607716980000,
            "relative_velocity": {
                "kilometers_per_second": "6.9694133392",
                "kilometers_per_hour": "25089.8880210908",
                "miles_per_hour": "15589.8806984384"
            },
            "miss_distance": {
                "astronomical": "0.0375637183",
                "lunar": "14.6122864187",
                "kilometers": "5619452.246960021",
                "miles": "3491765.7109334498"
            },
            "orbiting_body": "Earth"
        },
        {
            "close_approach_date": "2090-09-27",
            "close_approach_date_full": "2090-Sep-27 17:57",
            "epoch_date_close_approach": 3810218220000,
            "relative_velocity": {
                "kilometers_per_second": "1.7093934954",
                "kilometers_per_hour": "6153.816583452",
                "miles_per_hour": "3823.7423098677"
            },
            "miss_distance": {
                "astronomical": "1.9766838639",
                "lunar": "768.9300230571",
                "kilometers": "295707695.702809893",
                "miles": "183744241.7760188034"
            },
            "orbiting_body": "Juptr"
        },
        {
            "close_approach_date": "2101-12-14",
            "close_approach_date_full": "2101-Dec-14 21:51",
            "epoch_date_close_approach": 4164040260000,
            "relative_velocity": {
                "kilometers_per_second": "7.028789565",
                "kilometers_per_hour": "25303.6424341773",
                "miles_per_hour": "15722.6993780587"
            },
            "miss_distance": {
                "astronomical": "0.0380597576",
                "lunar": "14.8052457064",
                "kilometers": "5693658.669676312",
                "miles": "3537875.4438726256"
            },
            "orbiting_body": "Earth"
        },
        {
            "close_approach_date": "2114-09-19",
            "close_approach_date_full": "2114-Sep-19 13:24",
            "epoch_date_close_approach": 4566806640000,
            "relative_velocity": {
                "kilometers_per_second": "13.0683999504",
                "kilometers_per_hour": "47046.2398213961",
                "miles_per_hour": "29232.7038490225"
            },
            "miss_distance": {
                "astronomical": "0.0225312371",
                "lunar": "8.7646512319",
                "kilometers": "3370625.078624977",
                "miles": "2094409.3048076026"
            },
            "orbiting_body": "Mars"
        }
    ],
    "orbital_data": {
        "orbit_id": "2",
        "orbit_determination_date": "2020-12-06 05:25:13",
        "first_observation_date": "2020-11-05",
        "last_observation_date": "2020-12-06",
        "data_arc_in_days": 31,
        "observations_used": 39,
        "orbit_uncertainty": "7",
        "minimum_orbit_intersection": ".0271971",
        "jupiter_tisserand_invariant": "3.470",
        "epoch_osculation": "2459000.5",
        "eccentricity": ".5375605226893008",
        "semi_major_axis": "2.188174109054716",
        "inclination": "2.617061472637783",
        "ascending_node_longitude": "60.5991855217917",
        "orbital_period": "1182.282440664865",
        "perihelion_distance": "1.011898091256068",
        "perihelion_argument": "10.26825922410246",
        "aphelion_distance": "3.364450126853365",
        "perihelion_time": "2459188.505523034029",
        "mean_anomaly": "302.7531138378501",
        "mean_motion": ".3044957682003222",
        "equinox": "J2000",
        "orbit_class": {
            "orbit_class_type": "APO",
            "orbit_class_description": "Near-Earth asteroid orbits which cross the Earth’s orbit similar to that of 1862 Apollo",
            "orbit_class_range": "a (semi-major axis) > 1.0 AU; q (perihelion) < 1.017 AU"
        }
    },
    "is_sentry_object": false
}